ORBCOMM FM103           
1 40091U 14040F   25197.44362982  .00000234  00000+0  86841-4 0  9994
2 40091  47.0042 239.6354 0001021  18.1032 341.9890 14.58199654568379
ORBCOMM FM114           
1 41179U 15081A   25197.60140690  .00000327  00000+0  10662-3 0  9996
2 41179  47.0019 147.9193 0001200 131.6573 228.4415 14.58244214508765
ORBCOMM FM119           
1 41180U 15081B   25197.59076413  .00000247  00000+0  89657-4 0  9999
2 41180  47.0011  57.2898 0001189 207.1849 152.8975 14.58175723510015
ORBCOMM FM105           
1 41181U 15081C   25197.32693698  .00000077  00000+0  66337-4 0  9992
2 41181  47.0021  66.3150 0001268  85.7534 274.3491 14.45237053504969
ORBCOMM FM110           
1 41182U 15081D   25197.59067764  .00000494  00000+0  14322-3 0  9990
2 41182  47.0010 147.4794 0002145 310.2978  49.7720 14.57977404508637
ORBCOMM FM118           
1 41183U 15081E   25197.55682690  .00000407  00000+0  12398-3 0  9993
2 41183  47.0032 147.9102 0003797 290.3013  69.7464 14.58224581508732
ORBCOMM FM112           
1 41184U 15081F   25197.63396006  .00000485  00000+0  14053-3 0  9992
2 41184  46.9996  56.2150 0000997 131.7115 228.3856 14.58260478509964
ORBCOMM FM113           
1 41185U 15081G   25197.61045827  .00000454  00000+0  13388-3 0  9999
2 41185  47.0013  56.6514 0000946 157.2771 202.8156 14.58264000509943
